STARLINK-2723
1 18476C 21040BA  21326.16269324  .00005127  00000-0  34348-3 0  3267
2 18476  53.0433  33.0548 0001155  70.6035 191.9378 15.06399303    13
